{
  "type": "FeatureCollection",
  "features": [
    {
      "type": "Feature",
      "properties": {
        "norad_id": 66732,
        "name": "FLOCK 4H-29",
        "group": "last-30-days",
        "lat": 4.291592679875265,
        "lon": 71.1406008996571,
        "alt_km": 516.6134578076981,
        "timestamp": "2025-12-26T04:40:04.510829+00:00",
        "meta_object_name": "FLOCK 4H-29",
        "meta_object_id": "2025-276BU",
        "meta_epoch": "2025-12-25T22:19:04.517760",
        "meta_mean_motion": 15.17317804,
        "meta_eccentricity": 0.00019188,
        "meta_inclination": 97.4365,
        "meta_ra_of_asc_node": 71.4425,
        "meta_arg_of_pericenter": 267.9132,
        "meta_mean_anomaly": 92.1882,
        "meta_ephemeris_type": 0,
        "meta_classification_type": "U",
        "meta_norad_cat_id": 66732,
        "meta_element_set_no": 999,
        "meta_rev_at_epoch": 412,
        "meta_bstar": 0.00053198907,
        "meta_mean_motion_dot": 0.00010549,
        "meta_mean_motion_ddot": 0,
        "tle_line1": "1 66732U 25276BU  25359.92991340  .00010549  00000+0  53199-3 0  9995",
        "tle_line2": "2 66732  97.4365  71.4425 0001918 267.9132  92.1882 15.17317804  4126"
      },
      "geometry": {
        "type": "Point",
        "coordinates": [
          71.1406008996571,
          4.291592679875265
        ]
      }
    },
    {
      "type": "Feature",
      "properties": {
        "norad_id": 66733,
        "name": "FLOCK 4H-30",
        "group": "last-30-days",
        "lat": -2.1984271186543576,
        "lon": 72.01436240084766,
        "alt_km": 518.1978157833255,
        "timestamp": "2025-12-26T04:40:04.510841+00:00",
        "meta_object_name": "FLOCK 4H-30",
        "meta_object_id": "2025-276BV",
        "meta_epoch": "2025-12-25T22:00:01.999584",
        "meta_mean_motion": 15.17297718,
        "meta_eccentricity": 0.00030966,
        "meta_inclination": 97.443,
        "meta_ra_of_asc_node": 71.4539,
        "meta_arg_of_pericenter": 247.1725,
        "meta_mean_anomaly": 34.2161,
        "meta_ephemeris_type": 0,
        "meta_classification_type": "U",
        "meta_norad_cat_id": 66733,
        "meta_element_set_no": 999,
        "meta_rev_at_epoch": 354,
        "meta_bstar": -0.00091988078,
        "meta_mean_motion_dot": -0.00018338,
        "meta_mean_motion_ddot": 0,
        "tle_line1": "1 66733U 25276BV  25359.91668981 -.00018338  00000+0 -91988-3 0  9991",
        "tle_line2": "2 66733  97.4430  71.4539 0003096 247.1725  34.2161 15.17297718  3546"
      },
      "geometry": {
        "type": "Point",
        "coordinates": [
          72.01436240084766,
          -2.1984271186543576
        ]
      }
    },
    {
      "type": "Feature",
      "properties": {
        "norad_id": 66734,
        "name": "FLOCK 4H-31",
        "group": "last-30-days",
        "lat": -2.053431054967369,
        "lon": 71.96836308491858,
        "alt_km": 517.7681179509864,
        "timestamp": "2025-12-26T04:40:04.510851+00:00",
        "meta_object_name": "FLOCK 4H-31",
        "meta_object_id": "2025-276BW",
        "meta_epoch": "2025-12-25T22:20:44.628576",
        "meta_mean_motion": 15.17242053,
        "meta_eccentricity": 0.00024627,
        "meta_inclination": 97.4364,
        "meta_ra_of_asc_node": 71.4415,
        "meta_arg_of_pericenter": 260.4393,
        "meta_mean_anomaly": 99.6562,
        "meta_ephemeris_type": 0,
        "meta_classification_type": "U",
        "meta_norad_cat_id": 66734,
        "meta_element_set_no": 999,
        "meta_rev_at_epoch": 412,
        "meta_bstar": 0.00041579483,
        "meta_mean_motion_dot": 8.21e-05,
        "meta_mean_motion_ddot": 0,
        "tle_line1": "1 66734U 25276BW  25359.93107209  .00008210  00000+0  41579-3 0  9992",
        "tle_line2": "2 66734  97.4364  71.4415 0002462 260.4393  99.6562 15.17242053  4128"
      },
      "geometry": {
        "type": "Point",
        "coordinates": [
          71.96836308491858,
          -2.053431054967369
        ]
      }
    },
    {
      "type": "Feature",
      "properties": {
        "norad_id": 66735,
        "name": "FLOCK 4H-32",
        "group": "last-30-days",
        "lat": -4.0763655576078675,
        "lon": 72.25464882811356,
        "alt_km": 518.6524462008292,
        "timestamp": "2025-12-26T04:40:04.510861+00:00",
        "meta_object_name": "FLOCK 4H-32",
        "meta_object_id": "2025-276BX",
        "meta_epoch": "2025-12-25T22:21:17.267904",
        "meta_mean_motion": 15.17264717,
        "meta_eccentricity": 0.00035435,
        "meta_inclination": 97.4423,
        "meta_ra_of_asc_node": 71.4625,
        "meta_arg_of_pericenter": 244.0103,
        "meta_mean_anomaly": 116.0766,
        "meta_ephemeris_type": 0,
        "meta_classification_type": "U",
        "meta_norad_cat_id": 66735,
        "meta_element_set_no": 999,
        "meta_rev_at_epoch": 412,
        "meta_bstar": 0.00034219119,
        "meta_mean_motion_dot": 6.748e-05,
        "meta_mean_motion_ddot": 0,
        "tle_line1": "1 66735U 25276BX  25359.93144986  .00006748  00000+0  34219-3 0  9993",
        "tle_line2": "2 66735  97.4423  71.4625 0003543 244.0103 116.0766 15.17264717  4127"
      },
      "geometry": {
        "type": "Point",
        "coordinates": [
          72.25464882811356,
          -4.0763655576078675
        ]
      }
    },
    {
      "type": "Feature",
      "properties": {
        "norad_id": 66736,
        "name": "FLOCK 4H-33",
        "group": "last-30-days",
        "lat": 77.94229424370842,
        "lon": -70.5067413656159,
        "alt_km": 502.32653905151255,
        "timestamp": "2025-12-26T04:40:04.510871+00:00",
        "meta_object_name": "FLOCK 4H-33",
        "meta_object_id": "2025-276BY",
        "meta_epoch": "2025-12-25T21:54:16.384896",
        "meta_mean_motion": 15.18333401,
        "meta_eccentricity": 0.00028627,
        "meta_inclination": 97.442,
        "meta_ra_of_asc_node": 71.4869,
        "meta_arg_of_pericenter": 150.9416,
        "meta_mean_anomaly": 209.1978,
        "meta_ephemeris_type": 0,
        "meta_classification_type": "U",
        "meta_norad_cat_id": 66736,
        "meta_element_set_no": 999,
        "meta_rev_at_epoch": 412,
        "meta_bstar": 0.0003862352,
        "meta_mean_motion_dot": 7.865e-05,
        "meta_mean_motion_ddot": 0,
        "tle_line1": "1 66736U 25276BY  25359.91268964  .00007865  00000+0  38624-3 0  9990",
        "tle_line2": "2 66736  97.4420  71.4869 0002862 150.9416 209.1978 15.18333401  4127"
      },
      "geometry": {
        "type": "Point",
        "coordinates": [
          -70.5067413656159,
          77.94229424370842
        ]
      }
    },
    {
      "type": "Feature",
      "properties": {
        "norad_id": 66737,
        "name": "FLOCK 4H-34",
        "group": "last-30-days",
        "lat": 82.41995699060108,
        "lon": -7.481131269106268,
        "alt_km": 503.1923393315019,
        "timestamp": "2025-12-26T04:40:04.510881+00:00",
        "meta_object_name": "FLOCK 4H-34",
        "meta_object_id": "2025-276BZ",
        "meta_epoch": "2025-12-25T21:57:06.314688",
        "meta_mean_motion": 15.18186668,
        "meta_eccentricity": 0.00026401,
        "meta_inclination": 97.4433,
        "meta_ra_of_asc_node": 71.4896,
        "meta_arg_of_pericenter": 158.5583,
        "meta_mean_anomaly": 201.5762,
        "meta_ephemeris_type": 0,
        "meta_classification_type": "U",
        "meta_norad_cat_id": 66737,
        "meta_element_set_no": 999,
        "meta_rev_at_epoch": 337,
        "meta_bstar": 0.00032109946,
        "meta_mean_motion_dot": 6.498e-05,
        "meta_mean_motion_ddot": 0,
        "tle_line1": "1 66737U 25276BZ  25359.91465642  .00006498  00000+0  32110-3 0  9998",
        "tle_line2": "2 66737  97.4433  71.4896 0002640 158.5583 201.5762 15.18186668  3379"
      },
      "geometry": {
        "type": "Point",
        "coordinates": [
          -7.481131269106268,
          82.41995699060108
        ]
      }
    },
    {
      "type": "Feature",
      "properties": {
        "norad_id": 66738,
        "name": "FLOCK 4H-35",
        "group": "last-30-days",
        "lat": 78.59051684720998,
        "lon": -67.89185443197125,
        "alt_km": 502.3631165685947,
        "timestamp": "2025-12-26T04:40:04.510890+00:00",
        "meta_object_name": "FLOCK 4H-35",
        "meta_object_id": "2025-276CA",
        "meta_epoch": "2025-12-25T21:54:28.910304",
        "meta_mean_motion": 15.18280746,
        "meta_eccentricity": 0.00026392,
        "meta_inclination": 97.4396,
        "meta_ra_of_asc_node": 71.4775,
        "meta_arg_of_pericenter": 141.7719,
        "meta_mean_anomaly": 218.3702,
        "meta_ephemeris_type": 0,
        "meta_classification_type": "U",
        "meta_norad_cat_id": 66738,
        "meta_element_set_no": 999,
        "meta_rev_at_epoch": 341,
        "meta_bstar": 0.00032622847,
        "meta_mean_motion_dot": 6.621e-05,
        "meta_mean_motion_ddot": 0,
        "tle_line1": "1 66738U 25276CA  25359.91283461  .00006621  00000+0  32623-3 0  9993",
        "tle_line2": "2 66738  97.4396  71.4775 0002639 141.7719 218.3702 15.18280746  3414"
      },
      "geometry": {
        "type": "Point",
        "coordinates": [
          -67.89185443197125,
          78.59051684720998
        ]
      }
    }
  ]
}